NORAD_CAT_ID,OBJECT_NAME,OBJECT_TYPE,EPOCH,MEAN_MOTION,ECCENTRICITY,INCLINATION,RA_OF_ASC_NODE,ARG_OF_PERICENTER,MEAN_ANOMALY,BSTAR,MEAN_MOTION_DOT,MEAN_MOTION_DDOT,TLE_LINE0,TLE_LINE1,TLE_LINE2,SEMIMAJOR_AXIS,PERIOD,APOGEE,PERIGEE,DECAYED
56794.0,STARLINK-6060,PAYLOAD,2024-06-09 07:52:49,14.98326792,0.0002836,69.9991,133.9708,269.0022,91.0812,1.4981e-05,8.6e-07,0.0,0 STARLINK-6060,1 56794U 23078AD  24161.32834961  .00000086  00000-0  14981-4 0  9992,2 56794  69.9991 133.9708 0002836 269.0022  91.0812 14.98326792 57551,6950.203,96.107,574.039,570.097,0.0
56794.0,STARLINK-6060,PAYLOAD,2024-06-09 22:18:02,14.98327269,0.0002835,69.9991,132.456,269.0605,91.0229,1.2393e-05,5.5e-07,0.0,0 STARLINK-6060,1 56794U 23078AD  24161.92919031  .00000055  00000-0  12393-4 0  9991,2 56794  69.9991 132.4560 0002835 269.0605  91.0229 14.98327269 57649,6950.201,96.107,574.037,570.096,0.0
56794.0,STARLINK-6060,PAYLOAD,2024-06-10 04:42:34,14.98330305,0.0002859,69.9992,131.7831,269.7268,90.3563,-1.4984e-05,-2.72e-06,0.0,0 STARLINK-6060,1 56794U 23078AD  24162.19622956 -.00000272  00000-0 -14984-4 0  9999,2 56794  69.9992 131.7831 0002859 269.7268  90.3563 14.98330305 57942,6950.192,96.107,574.044,570.07,0.0
56794.0,STARLINK-6060,PAYLOAD,2024-06-10 07:54:50,14.9833131,0.000285,69.9992,131.4464,269.728,90.3553,-2.6963e-06,-1.25e-06,0.0,0 STARLINK-6060,1 56794U 23078AD  24162.32974855 -.00000125  00000-0 -26963-5 0  9990,2 56794  69.9992 131.4464 0002850 269.7280  90.3553 14.98331310 57706,6950.189,96.107,574.035,570.073,0.0
56794.0,STARLINK-6060,PAYLOAD,2024-06-10 22:20:03,14.98327125,0.0002868,69.9993,129.9317,269.7197,90.3633,2.3706e-05,1.9e-06,0.0,0 STARLINK-6060,1 56794U 23078AD  24162.93059055  .00000190  00000-0  23706-4 0  9994,2 56794  69.9993 129.9317 0002868 269.7197  90.3633 14.98327125 57799,6950.202,96.107,574.06,570.073,0.0
56794.0,STARLINK-6060,PAYLOAD,2024-06-11 04:44:35,14.98329375,0.0002802,69.9995,129.2591,268.6738,91.41,2.4036e-05,1.94e-06,0.0,0 STARLINK-6060,1 56794U 23078AD  24163.19762946  .00000194  00000-0  24036-4 0  9994,2 56794  69.9995 129.2591 0002802 268.6738  91.4100 14.98329375 58099,6950.195,96.107,574.007,570.112,0.0
56794.0,STARLINK-6060,PAYLOAD,2024-06-11 07:56:51,14.9833065,0.0002782,69.9996,128.9224,268.6737,91.4104,3.7377e-05,3.53e-06,0.0,0 STARLINK-6060,1 56794U 23078AD  24163.33114829  .00000353  00000-0  37377-4 0  9990,2 56794  69.9996 128.9224 0002782 268.6737  91.4104 14.98330650 57850,6950.191,96.107,573.989,570.122,0.0
56794.0,STARLINK-6060,PAYLOAD,2024-06-12 04:46:36,14.98328661,0.0002716,69.9999,126.7344,269.0473,91.0375,2.6433e-06,-6.1e-07,0.0,0 STARLINK-6060,1 56794U 23078AD  24164.19903067 -.00000061  00000-0  26433-5 0  9994,2 56794  69.9999 126.7344 0002716 269.0473  91.0375 14.98328661 58240,6950.197,96.107,573.95,570.174,0.0
56794.0,STARLINK-6060,PAYLOAD,2024-06-12 06:22:44,14.98329029,0.0002711,69.9999,126.5661,269.0519,91.0329,6.6062e-06,-1.4e-07,0.0,0 STARLINK-6060,1 56794U 23078AD  24164.26579035 -.00000014  00000-0  66062-5 0  9996,2 56794  69.9999 126.5661 0002711 269.0519  91.0329 14.98329029 57995,6950.196,96.107,573.945,570.177,0.0
56794.0,STARLINK-6060,PAYLOAD,2024-06-12 22:24:04,14.9833023,0.000268,70.0,124.8833,266.879,93.2062,-3.0672e-07,-9.7e-07,0.0,0 STARLINK-6060,1 56794U 23078AD  24164.93338958 -.00000097  00000-0 -30672-6 0  9998,2 56794  70.0000 124.8833 0002680 266.8790  93.2062 14.98330230 58090,6950.192,96.107,573.92,570.195,0.0
56794.0,STARLINK-6060,PAYLOAD,2024-06-13 04:48:37,14.98330215,0.0002708,70.0,124.21,266.5471,93.5378,-2.075e-06,-1.18e-06,0.0,0 STARLINK-6060,1 56794U 23078AD  24165.20042948 -.00000118  00000-0 -20750-5 0  9999,2 56794  70.0000 124.2100 0002708 266.5471  93.5378 14.98330215 58394,6950.192,96.107,573.939,570.175,0.0
56794.0,STARLINK-6060,PAYLOAD,2024-06-13 14:25:25,14.98329744,0.0002716,70.0001,123.2001,266.7153,93.3696,-1.1198e-05,-2.27e-06,0.0,0 STARLINK-6060,1 56794U 23078AD  24165.60098988 -.00000227  00000-0 -11198-4 0  9994,2 56794  70.0001 123.2001 0002716 266.7153  93.3696 14.98329744 58196,6950.194,96.107,573.946,570.171,0.0
56794.0,STARLINK-6060,PAYLOAD,2024-06-13 22:26:05,14.9832954,0.0002803,69.9999,122.3579,266.3346,93.7493,-3.4048e-06,-1.34e-06,0.0,0 STARLINK-6060,1 56794U 23078AD  24165.93478945 -.00000134  00000-0 -34048-5 0  9992,2 56794  69.9999 122.3579 0002803 266.3346  93.7493 14.98329540 58245,6950.194,96.107,574.007,570.111,0.0
56794.0,STARLINK-6060,PAYLOAD,2024-06-14 14:27:26,14.98330403,0.0002879,69.9998,120.6744,268.1666,91.9163,1.3567e-06,-7.7e-07,0.0,0 STARLINK-6060,1 56794U 23078AD  24166.60238831 -.00000077  00000-0  13567-5 0  9993,2 56794  69.9998 120.6744 0002879 268.1666  91.9163 14.98330403 58342,6950.192,96.107,574.058,570.056,0.0
56794.0,STARLINK-6060,PAYLOAD,2024-06-14 20:51:58,14.98329989,0.0002939,69.9996,120.0011,268.6791,91.4031,-1.7275e-05,-2.99e-06,0.0,0 STARLINK-6060,1 56794U 23078AD  24166.86942922 -.00000299  00000-0 -17275-4 0  9990,2 56794  69.9996 120.0011 0002939 268.6791  91.4031 14.98329989 58382,6950.193,96.107,574.101,570.015,0.0
56794.0,STARLINK-6060,PAYLOAD,2024-06-15 06:28:46,14.98332944,0.0002868,69.9999,118.9913,267.2952,92.7879,2.3356e-05,1.86e-06,0.0,0 STARLINK-6060,1 56794U 23078AD  24167.26998561  .00000186  00000-0  23356-4 0  9995,2 56794  69.9999 118.9913 0002868 267.2952  92.7879 14.98332944 58443,6950.184,96.107,574.042,570.055,0.0
56794.0,STARLINK-6060,PAYLOAD,2024-06-15 22:30:07,14.98329608,0.00029,69.9998,117.3078,267.8614,92.2213,1.3966e-05,7.4e-07,0.0,0 STARLINK-6060,1 56794U 23078AD  24167.93758686  .00000074  00000-0  13966-4 0  9993,2 56794  69.9998 117.3078 0002900 267.8614  92.2213 14.98329608 58546,6950.194,96.107,574.075,570.044,0.0
56794.0,STARLINK-6060,PAYLOAD,2024-06-16 06:30:47,14.98334155,0.0002836,69.9999,116.4663,266.9141,93.1694,3.815e-05,3.62e-06,0.0,0 STARLINK-6060,1 56794U 23078AD  24168.27138286  .00000362  00000-0  38150-4 0  9991,2 56794  69.9999 116.4663 0002836 266.9141  93.1694 14.98334155 58591,6950.18,96.107,574.016,570.074,0.0
56794.0,STARLINK-6060,PAYLOAD,2024-06-16 22:32:08,14.98327379,0.000286,69.9996,114.7819,267.6736,92.4095,-4.205e-05,-5.95e-06,0.0,0 STARLINK-6060,1 56794U 23078AD  24168.93898871 -.00000595  00000-0 -42050-4 0  9991,2 56794  69.9996 114.7819 0002860 267.6736  92.4095 14.98327379 58695,6950.201,96.107,574.054,570.078,0.0
56794.0,STARLINK-6060,PAYLOAD,2024-06-17 20:58:01,14.98330293,0.0002794,70.0,112.4265,273.1701,86.9138,-1.8622e-05,-3.15e-06,0.0,0 STARLINK-6060,1 56794U 23078AD  24169.87362740 -.00000315  00000-0 -18622-4 0  9994,2 56794  70.0000 112.4265 0002794 273.1701  86.9138 14.98330293 59094,6950.192,96.107,573.999,570.115,0.0
56794.0,STARLINK-6060,PAYLOAD,2024-06-17 22:34:09,14.98330344,0.00028,70.0,112.2581,272.6925,87.3913,-1.7819e-05,-3.06e-06,0.0,0 STARLINK-6060,1 56794U 23078AD  24169.94038726 -.00000306  00000-0 -17819-4 0  9993,2 56794  70.0000 112.2581 0002800 272.6925  87.3913 14.98330344 58848,6950.192,96.107,574.003,570.111,0.0
56794.0,STARLINK-6060,PAYLOAD,2024-06-18 12:59:21,14.9833116,0.0002776,70.0003,110.7431,272.0388,88.0453,5.3801e-06,-2.9e-07,0.0,0 STARLINK-6060,1 56794U 23078AD  24170.54122535 -.00000029  00000-0  53801-5 0  9996,2 56794  70.0003 110.7431 0002776 272.0388  88.0453 14.98331160 58931,6950.189,96.107,573.984,570.125,0.0
56794.0,STARLINK-6060,PAYLOAD,2024-06-18 21:00:02,14.98329064,0.0002821,70.0001,109.9015,272.0355,88.0481,5.1519e-05,5.22e-06,0.0,0 STARLINK-6060,1 56794U 23078AD  24170.87502505  .00000522  00000-0  51519-4 0  9991,2 56794  70.0001 109.9015 0002821 272.0355  88.0481 14.98329064 58988,6950.196,96.107,574.021,570.1,0.0
56794.0,STARLINK-6060,PAYLOAD,2024-06-19 03:24:34,14.98330279,0.0002743,70.0003,109.2286,269.0602,91.0242,7.3565e-05,7.85e-06,0.0,0 STARLINK-6060,1 56794U 23078AD  24171.14206350  .00000785  00000-0  73565-4 0  9997,2 56794  70.0003 109.2286 0002743 269.0602  91.0242 14.98330279 59280,6950.192,96.107,573.963,570.151,0.0
56794.0,STARLINK-6060,PAYLOAD,2024-06-19 13:01:22,14.98331307,0.0002716,70.0003,108.2187,268.5807,91.5041,3.5524e-05,3.31e-06,0.0,0 STARLINK-6060,1 56794U 23078AD  24171.54262353  .00000331  00000-0  35524-4 0  9996,2 56794  70.0003 108.2187 0002716 268.5807  91.5041 14.98331307 59083,6950.189,96.107,573.942,570.166,0.0
56794.0,STARLINK-6060,PAYLOAD,2024-06-19 22:38:11,14.9832934,0.0002725,70.0003,107.2088,268.5992,91.4854,-2.5238e-05,-3.94e-06,0.0,0 STARLINK-6060,1 56794U 23078AD  24171.94318609 -.00000394  00000-0 -25238-4 0  9998,2 56794  70.0003 107.2088 0002725 268.5992  91.4854 14.98329340 59149,6950.195,96.107,573.954,570.166,0.0
56794.0,STARLINK-6060,PAYLOAD,2024-06-20 05:02:43,14.98329674,0.0002689,70.0009,106.5365,265.7533,94.3319,1.6578e-05,1.05e-06,0.0,0 STARLINK-6060,1 56794U 23078AD  24172.21022461  .00000105  00000-0  16578-4 0  9992,2 56794  70.0009 106.5365 0002689 265.7533  94.3319 14.98329674 59445,6950.194,96.107,573.928,570.19,0.0
56794.0,STARLINK-6060,PAYLOAD,2024-06-20 06:38:51,14.98332097,0.0002689,70.0006,106.3671,265.4143,94.6709,1.5737e-05,9.5e-07,0.0,0 STARLINK-6060,1 56794U 23078AD  24172.27698281  .00000095  00000-0  15737-4 0  9991,2 56794  70.0006 106.3671 0002689 265.4143  94.6709 14.98332097 59195,6950.186,96.107,573.92,570.183,0.0
56794.0,STARLINK-6060,PAYLOAD,2024-06-20 22:40:12,14.98328319,0.0002683,70.0006,104.6845,261.8766,98.2089,-5.8727e-05,-7.94e-06,0.0,0 STARLINK-6060,1 56794U 23078AD  24172.94458689 -.00000794  00000-0 -58727-4 0  9995,2 56794  70.0006 104.6845 0002683 261.8766  98.2089 14.98328319 59298,6950.198,96.107,573.928,570.198,0.0
56794.0,STARLINK-6060,PAYLOAD,2024-06-21 05:04:44,14.98327006,0.0002635,70.0006,104.0104,264.5775,95.5084,-3.0681e-05,-4.59e-06,0.0,0 STARLINK-6060,1 56794U 23078AD  24173.21162743 -.00000459  00000-0 -30681-4 0  9996,2 56794  70.0006 104.0104 0002635 264.5775  95.5084 14.98327006 59597,6950.202,96.107,573.899,570.236,0.0
